GLOBALSTAR M023         
1 25621U 99004A   25178.98407843 -.00000151  00000+0 -26283-3 0  9996
2 25621  52.0129  20.5642 0010142 144.8323   2.5205 12.62507301217189
GLOBALSTAR M040         
1 25622U 99004B   25178.87452418 -.00000084  00000+0  11033-3 0  9994
2 25622  51.9934  25.0690 0001691  68.8509  33.0395 12.62011578216606
GLOBALSTAR M036         
1 25623U 99004C   25179.52281819 -.00000040  00000+0  61670-3 0  9997
2 25623  51.9934 210.4442 0010939  74.5340  92.5169 11.86608214180304
GLOBALSTAR M038         
1 25624U 99004D   25179.39283479 -.00000075  00000+0  16351-3 0  9991
2 25624  51.9991  39.3007 0002684  74.9654  96.0234 12.32528626203716
GLOBALSTAR M022         
1 25649U 99012A   25179.20440236 -.00000032  00000+0  65577-3 0  9990
2 25649  52.0034 260.9532 0002921 189.9771 195.9548 12.02500843177781
GLOBALSTAR M041         
1 25650U 99012B   25179.16018123 -.00000093  00000+0 -10049-3 0  9995
2 25650  51.9994 142.8591 0001839 340.9161  19.1606 11.96681254179836
GLOBALSTAR M046         
1 25651U 99012C   25178.86573846 -.00000070  00000+0  20473-3 0  9996
2 25651  52.0030 211.6176 0002166 270.2243 260.8892 12.09411531184959
GLOBALSTAR M037         
1 25652U 99012D   25179.17153821 -.00000091  00000+0  69808-4 0  9998
2 25652  51.9981 150.6093 0001780 217.1827 156.5523 12.62447381212711
